ONEWEB-0116             
1 48046U 21025E   25344.73942867  .00000152  00000+0  38092-3 0  9998
2 48046  87.8987 357.6637 0001863  92.4860 267.6482 13.13471216228911
ONEWEB-0150             
1 48047U 21025F   25344.79190466  .00000323  00000+0  85004-3 0  9990
2 48047  87.8988 357.6490 0001611  97.5685 262.5628 13.13471441228817
ONEWEB-0107             
1 48048U 21025G   25344.79360772  .00000285  00000+0  74583-3 0  9997
2 48048  87.8988 357.6452 0001489  87.5693 272.5606 13.13470771228796
ONEWEB-0101             
1 48049U 21025H   25344.75635005 -.00000206  00000+0 -59927-3 0  9998
2 48049  87.8981 357.6862 0001711  86.4039 273.7286 13.13471449228762
ONEWEB-0113             
1 48050U 21025J   25344.77344230 -.00000129  00000+0 -38580-3 0  9995
2 48050  87.8985 357.6118 0001864  99.0574 261.0766 13.13985287228869
ONEWEB-0112             
1 48051U 21025K   25344.79868041  .00000389  00000+0  10304-2 0  9998
2 48051  87.8987 357.6414 0001667  93.6992 266.4328 13.13471525228864
ONEWEB-0156             
1 48052U 21025L   25344.73096522  .00000275  00000+0  71815-3 0  9999
2 48052  87.8990 357.6665 0001585  92.0696 268.0615 13.13470560228832
ONEWEB-0161             
1 48053U 21025M   25344.78175329  .00000057  00000+0  12064-3 0  9997
2 48053  87.8980 357.6718 0001547  91.1727 268.9579 13.13470923228778
